IRIDIUM 921 [-]         
1 24873U 97034E   24107.61000154  .00043373  00000+0  12741-2 0  9994
2 24873  86.3816 318.5183 0005910 114.0493 246.1377 15.34935740465729
IRIDIUM 26 [-]          
1 24903U 97043A   24107.53594312  .00001068  00000+0  35909-3 0  9990
2 24903  86.3904 289.6416 0002298  88.5212 271.6248 14.36281317395488
IRIDIUM 22 [-]          
1 24907U 97043E   24107.54396082  .00000980  00000+0  33637-3 0  9997
2 24907  86.3909 292.8288 0002077  91.2289 268.9145 14.35173497395562
DUMMY MASS 1 [-]        
1 24925U 97048A   24107.58564579  .00000876  00000+0  96750-4 0  9994
2 24925  86.3349 332.4689 0005626 199.2817 160.8195 14.86136444441750
DUMMY MASS 2 [-]        
1 24926U 97048B   24107.61226438  .00000873  00000+0  97014-4 0  9999
2 24926  86.3350 333.9883 0005987 214.5683 145.5153 14.85895407441548
IRIDIUM 29 [-]          
1 24944U 97051A   24107.56614279  .00000805  00000+0  27242-3 0  9991
2 24944  86.3944 322.7573 0002000  94.0603 266.0822 14.35631141392045
IRIDIUM 33 [-]          
1 24946U 97051C   24107.60527020  .00000541  00000+0  18556-3 0  9990
2 24946  86.3858 321.9966 0009223  42.1634 318.0270 14.34310152391588
IRIDIUM 28 [-]          
1 24948U 97051E   24107.61083104  .00000827  00000+0  27500-3 0  9999
2 24948  86.3945 320.4981 0002466  81.3204 278.8273 14.36580448392584
