<?xml version="1.0" encoding="UTF-8"?>
<ndm xmlns:xsi="http://www.w3.org/2001/XMLSchema-instance" xsi:noNamespaceSchemaLocation="https://sanaregistry.org/r/ndmxml_unqualified/ndmxml-2.0.0-master-2.0.xsd">
<omm id="CCSDS_OMM_VERS" version="2.0">
<header><CREATION_DATE/><ORIGINATOR/></header><body><segment><metadata><OBJECT_NAME>IRIDIUM 921 [-]</OBJECT_NAME><OBJECT_ID>1997-034E</OBJECT_ID><CENTER_NAME>EARTH</CENTER_NAME><REF_FRAME>TEME</REF_FRAME><TIME_SYSTEM>UTC</TIME_SYSTEM><MEAN_ELEMENT_THEORY>SGP4</MEAN_ELEMENT_THEORY></metadata><data><meanElements><EPOCH>2024-04-16T14:38:24.133056</EPOCH><MEAN_MOTION>15.34935740</MEAN_MOTION><ECCENTRICITY>.000591</ECCENTRICITY><INCLINATION>86.3816</INCLINATION><RA_OF_ASC_NODE>318.5183</RA_OF_ASC_NODE><ARG_OF_PERICENTER>114.0493</ARG_OF_PERICENTER><MEAN_ANOMALY>246.1377</MEAN_ANOMALY></meanElements><tleParameters><EPHEMERIS_TYPE>0</EPHEMERIS_TYPE><CLASSIFICATION_TYPE>U</CLASSIFICATION_TYPE><NORAD_CAT_ID>24873</NORAD_CAT_ID><ELEMENT_SET_NO>999</ELEMENT_SET_NO><REV_AT_EPOCH>46572</REV_AT_EPOCH><BSTAR>.12741E-2</BSTAR><MEAN_MOTION_DOT>.43373E-3</MEAN_MOTION_DOT><MEAN_MOTION_DDOT>0</MEAN_MOTION_DDOT></tleParameters></data></segment></body></omm>
<omm id="CCSDS_OMM_VERS" version="2.0">
<header><CREATION_DATE/><ORIGINATOR/></header><body><segment><metadata><OBJECT_NAME>IRIDIUM 26 [-]</OBJECT_NAME><OBJECT_ID>1997-043A</OBJECT_ID><CENTER_NAME>EARTH</CENTER_NAME><REF_FRAME>TEME</REF_FRAME><TIME_SYSTEM>UTC</TIME_SYSTEM><MEAN_ELEMENT_THEORY>SGP4</MEAN_ELEMENT_THEORY></metadata><data><meanElements><EPOCH>2024-04-16T12:51:45.485568</EPOCH><MEAN_MOTION>14.36281317</MEAN_MOTION><ECCENTRICITY>.0002298</ECCENTRICITY><INCLINATION>86.3904</INCLINATION><RA_OF_ASC_NODE>289.6416</RA_OF_ASC_NODE><ARG_OF_PERICENTER>88.5212</ARG_OF_PERICENTER><MEAN_ANOMALY>271.6248</MEAN_ANOMALY></meanElements><tleParameters><EPHEMERIS_TYPE>0</EPHEMERIS_TYPE><CLASSIFICATION_TYPE>U</CLASSIFICATION_TYPE><NORAD_CAT_ID>24903</NORAD_CAT_ID><ELEMENT_SET_NO>999</ELEMENT_SET_NO><REV_AT_EPOCH>39548</REV_AT_EPOCH><BSTAR>.35909E-3</BSTAR><MEAN_MOTION_DOT>.1068E-4</MEAN_MOTION_DOT><MEAN_MOTION_DDOT>0</MEAN_MOTION_DDOT></tleParameters></data></segment></body></omm>
<omm id="CCSDS_OMM_VERS" version="2.0">
<header><CREATION_DATE/><ORIGINATOR/></header><body><segment><metadata><OBJECT_NAME>IRIDIUM 22 [-]</OBJECT_NAME><OBJECT_ID>1997-043E</OBJECT_ID><CENTER_NAME>EARTH</CENTER_NAME><REF_FRAME>TEME</REF_FRAME><TIME_SYSTEM>UTC</TIME_SYSTEM><MEAN_ELEMENT_THEORY>SGP4</MEAN_ELEMENT_THEORY></metadata><data><meanElements><EPOCH>2024-04-16T13:03:18.214848</EPOCH><MEAN_MOTION>14.35173497</MEAN_MOTION><ECCENTRICITY>.0002077</ECCENTRICITY><INCLINATION>86.3909</INCLINATION><RA_OF_ASC_NODE>292.8288</RA_OF_ASC_NODE><ARG_OF_PERICENTER>91.2289</ARG_OF_PERICENTER><MEAN_ANOMALY>268.9145</MEAN_ANOMALY></meanElements><tleParameters><EPHEMERIS_TYPE>0</EPHEMERIS_TYPE><CLASSIFICATION_TYPE>U</CLASSIFICATION_TYPE><NORAD_CAT_ID>24907</NORAD_CAT_ID><ELEMENT_SET_NO>999</ELEMENT_SET_NO><REV_AT_EPOCH>39556</REV_AT_EPOCH><BSTAR>.33637E-3</BSTAR><MEAN_MOTION_DOT>.98E-5</MEAN_MOTION_DOT><MEAN_MOTION_DDOT>0</MEAN_MOTION_DDOT></tleParameters></data></segment></body></omm>
<omm id="CCSDS_OMM_VERS" version="2.0">
<header><CREATION_DATE/><ORIGINATOR/></header><body><segment><metadata><OBJECT_NAME>DUMMY MASS 1 [-]</OBJECT_NAME><OBJECT_ID>1997-048A</OBJECT_ID><CENTER_NAME>EARTH</CENTER_NAME><REF_FRAME>TEME</REF_FRAME><TIME_SYSTEM>UTC</TIME_SYSTEM><MEAN_ELEMENT_THEORY>SGP4</MEAN_ELEMENT_THEORY></metadata><data><meanElements><EPOCH>2024-04-16T14:03:19.796256</EPOCH><MEAN_MOTION>14.86136444</MEAN_MOTION><ECCENTRICITY>.0005626</ECCENTRICITY><INCLINATION>86.3349</INCLINATION><RA_OF_ASC_NODE>332.4689</RA_OF_ASC_NODE><ARG_OF_PERICENTER>199.2817</ARG_OF_PERICENTER><MEAN_ANOMALY>160.8195</MEAN_ANOMALY></meanElements><tleParameters><EPHEMERIS_TYPE>0</EPHEMERIS_TYPE><CLASSIFICATION_TYPE>U</CLASSIFICATION_TYPE><NORAD_CAT_ID>24925</NORAD_CAT_ID><ELEMENT_SET_NO>999</ELEMENT_SET_NO><REV_AT_EPOCH>44175</REV_AT_EPOCH><BSTAR>.9675E-4</BSTAR><MEAN_MOTION_DOT>.876E-5</MEAN_MOTION_DOT><MEAN_MOTION_DDOT>0</MEAN_MOTION_DDOT></tleParameters></data></segment></body></omm>
<omm id="CCSDS_OMM_VERS" version="2.0">
<header><CREATION_DATE/><ORIGINATOR/></header><body><segment><metadata><OBJECT_NAME>DUMMY MASS 2 [-]</OBJECT_NAME><OBJECT_ID>1997-048B</OBJECT_ID><CENTER_NAME>EARTH</CENTER_NAME><REF_FRAME>TEME</REF_FRAME><TIME_SYSTEM>UTC</TIME_SYSTEM><MEAN_ELEMENT_THEORY>SGP4</MEAN_ELEMENT_THEORY></metadata><data><meanElements><EPOCH>2024-04-16T14:41:39.642432</EPOCH><MEAN_MOTION>14.85895407</MEAN_MOTION><ECCENTRICITY>.0005987</ECCENTRICITY><INCLINATION>86.3350</INCLINATION><RA_OF_ASC_NODE>333.9883</RA_OF_ASC_NODE><ARG_OF_PERICENTER>214.5683</ARG_OF_PERICENTER><MEAN_ANOMALY>145.5153</MEAN_ANOMALY></meanElements><tleParameters><EPHEMERIS_TYPE>0</EPHEMERIS_TYPE><CLASSIFICATION_TYPE>U</CLASSIFICATION_TYPE><NORAD_CAT_ID>24926</NORAD_CAT_ID><ELEMENT_SET_NO>999</ELEMENT_SET_NO><REV_AT_EPOCH>44154</REV_AT_EPOCH><BSTAR>.97014E-4</BSTAR><MEAN_MOTION_DOT>.873E-5</MEAN_MOTION_DOT><MEAN_MOTION_DDOT>0</MEAN_MOTION_DDOT></tleParameters></data></segment></body></omm>
<omm id="CCSDS_OMM_VERS" version="2.0">
<header><CREATION_DATE/><ORIGINATOR/></header><body><segment><metadata><OBJECT_NAME>IRIDIUM 29 [-]</OBJECT_NAME><OBJECT_ID>1997-051A</OBJECT_ID><CENTER_NAME>EARTH</CENTER_NAME><REF_FRAME>TEME</REF_FRAME><TIME_SYSTEM>UTC</TIME_SYSTEM><MEAN_ELEMENT_THEORY>SGP4</MEAN_ELEMENT_THEORY></metadata><data><meanElements><EPOCH>2024-04-16T13:35:14.737056</EPOCH><MEAN_MOTION>14.35631141</MEAN_MOTION><ECCENTRICITY>.0002</ECCENTRICITY><INCLINATION>86.3944</INCLINATION><RA_OF_ASC_NODE>322.7573</RA_OF_ASC_NODE><ARG_OF_PERICENTER>94.0603</ARG_OF_PERICENTER><MEAN_ANOMALY>266.0822</MEAN_ANOMALY></meanElements><tleParameters><EPHEMERIS_TYPE>0</EPHEMERIS_TYPE><CLASSIFICATION_TYPE>U</CLASSIFICATION_TYPE><NORAD_CAT_ID>24944</NORAD_CAT_ID><ELEMENT_SET_NO>999</ELEMENT_SET_NO><REV_AT_EPOCH>39204</REV_AT_EPOCH><BSTAR>.27242E-3</BSTAR><MEAN_MOTION_DOT>.805E-5</MEAN_MOTION_DOT><MEAN_MOTION_DDOT>0</MEAN_MOTION_DDOT></tleParameters></data></segment></body></omm>
<omm id="CCSDS_OMM_VERS" version="2.0">
<header><CREATION_DATE/><ORIGINATOR/></header><body><segment><metadata><OBJECT_NAME>IRIDIUM 33 [-]</OBJECT_NAME><OBJECT_ID>1997-051C</OBJECT_ID><CENTER_NAME>EARTH</CENTER_NAME><REF_FRAME>TEME</REF_FRAME><TIME_SYSTEM>UTC</TIME_SYSTEM><MEAN_ELEMENT_THEORY>SGP4</MEAN_ELEMENT_THEORY></metadata><data><meanElements><EPOCH>2024-04-16T14:31:35.345280</EPOCH><MEAN_MOTION>14.34310152</MEAN_MOTION><ECCENTRICITY>.0009223</ECCENTRICITY><INCLINATION>86.3858</INCLINATION><RA_OF_ASC_NODE>321.9966</RA_OF_ASC_NODE><ARG_OF_PERICENTER>42.1634</ARG_OF_PERICENTER><MEAN_ANOMALY>318.0270</MEAN_ANOMALY></meanElements><tleParameters><EPHEMERIS_TYPE>0</EPHEMERIS_TYPE><CLASSIFICATION_TYPE>U</CLASSIFICATION_TYPE><NORAD_CAT_ID>24946</NORAD_CAT_ID><ELEMENT_SET_NO>999</ELEMENT_SET_NO><REV_AT_EPOCH>39158</REV_AT_EPOCH><BSTAR>.18556E-3</BSTAR><MEAN_MOTION_DOT>.541E-5</MEAN_MOTION_DOT><MEAN_MOTION_DDOT>0</MEAN_MOTION_DDOT></tleParameters></data></segment></body></omm>
<omm id="CCSDS_OMM_VERS" version="2.0">
<header><CREATION_DATE/><ORIGINATOR/></header><body><segment><metadata><OBJECT_NAME>IRIDIUM 28 [-]</OBJECT_NAME><OBJECT_ID>1997-051E</OBJECT_ID><CENTER_NAME>EARTH</CENTER_NAME><REF_FRAME>TEME</REF_FRAME><TIME_SYSTEM>UTC</TIME_SYSTEM><MEAN_ELEMENT_THEORY>SGP4</MEAN_ELEMENT_THEORY></metadata><data><meanElements><EPOCH>2024-04-16T14:39:35.801856</EPOCH><MEAN_MOTION>14.36580448</MEAN_MOTION><ECCENTRICITY>.0002466</ECCENTRICITY><INCLINATION>86.3945</INCLINATION><RA_OF_ASC_NODE>320.4981</RA_OF_ASC_NODE><ARG_OF_PERICENTER>81.3204</ARG_OF_PERICENTER><MEAN_ANOMALY>278.8273</MEAN_ANOMALY></meanElements><tleParameters><EPHEMERIS_TYPE>0</EPHEMERIS_TYPE><CLASSIFICATION_TYPE>U</CLASSIFICATION_TYPE><NORAD_CAT_ID>24948</NORAD_CAT_ID><ELEMENT_SET_NO>999</ELEMENT_SET_NO><REV_AT_EPOCH>39258</REV_AT_EPOCH><BSTAR>.275E-3</BSTAR><MEAN_MOTION_DOT>.827E-5</MEAN_MOTION_DOT><MEAN_MOTION_DDOT>0</MEAN_MOTION_DDOT></tleParameters></data></segment></body></omm>

</ndm>
